IRIDIUM 159             
1 43578U 18061K   23268.12108971  .00000174  00000+0  54930-4 0  9999
2 43578  86.3926 113.0291 0002145  86.0259 274.1182 14.34214816270617
IRIDIUM 180             
1 43922U 19002A   23267.91128181  .00000529  00000+0  18175-3 0  9993
2 43922  86.3964  49.9463 0001982  98.2226 261.9195 14.34219176246195
IRIDIUM 176             
1 43923U 19002B   23267.88834045  .00002002  00000+0  31349-3 0  9999
2 43923  86.6094  49.9907 0002164  87.8478 272.2987 14.72256826252660
IRIDIUM 168             
1 43924U 19002C   23267.90494192  .00000661  00000+0  22898-3 0  9996
2 43924  86.3968  49.9983 0002025  94.3306 265.8121 14.34217553246170
IRIDIUM 173             
1 43925U 19002D   23267.89226008  .00000096  00000+0  27076-4 0  9990
2 43925  86.3963  49.9334 0002083  88.3580 271.7854 14.34218011246154
IRIDIUM 169             
1 43926U 19002E   23267.93536404  .00000248  00000+0  74400-4 0  9992
2 43926  86.4170  81.5473 0004603  50.4890 309.6715 14.38607188246996
IRIDIUM 172             
1 43927U 19002F   23267.88591123  .00000544  00000+0  18703-3 0  9998
2 43927  86.3964  49.9409 0002061  95.6141 264.5289 14.34220044246162
IRIDIUM 175             
1 43928U 19002G   23268.08606636  .00002109  00000+0  33051-3 0  9990
2 43928  86.1531  38.0929 0002215  92.1122 268.0349 14.72242437252681
